[{"OBJECT_NAME":"STARLINK-3172","OBJECT_ID":"2022-005AM","EPOCH":"2026-03-09T21:48:44.375616","MEAN_MOTION":15.08839804,"ECCENTRICITY":0.00014327,"INCLINATION":53.2171,"RA_OF_ASC_NODE":298.1496,"ARG_OF_PERICENTER":83.4009,"MEAN_ANOMALY":276.7147,"EPHEMERIS_TYPE":0,"CLASSIFICATION_TYPE":"U","NORAD_CAT_ID":51139,"ELEMENT_SET_NO":999,"REV_AT_EPOCH":22877,"BSTAR":7.1308665e-5,"MEAN_MOTION_DOT":8.47e-6,"MEAN_MOTION_DDOT":0},{"OBJECT_NAME":"EXPLORER 7","OBJECT_ID":"1959-009A","EPOCH":"2026-03-09T22:10:28.426368","MEAN_MOTION":15.26652664,"ECCENTRICITY":0.00808181,"INCLINATION":50.2405,"RA_OF_ASC_NODE":230.2318,"ARG_OF_PERICENTER":85.1115,"MEAN_ANOMALY":275.9066,"EPHEMERIS_TYPE":0,"CLASSIFICATION_TYPE":"U","NORAD_CAT_ID":22,"ELEMENT_SET_NO":999,"REV_AT_EPOCH":78517,"BSTAR":0.00064628265,"MEAN_MOTION_DOT":0.00018598,"MEAN_MOTION_DDOT":0}]
